[{"OBJECT_NAME":"STARLINK-3052","OBJECT_ID":"2021-082AM","EPOCH":"2026-03-09T22:32:34.625760","MEAN_MOTION":14.98329484,"ECCENTRICITY":0.00024335,"INCLINATION":69.9986,"RA_OF_ASC_NODE":293.8413,"ARG_OF_PERICENTER":267.9124,"MEAN_ANOMALY":92.1757,"EPHEMERIS_TYPE":0,"CLASSIFICATION_TYPE":"U","NORAD_CAT_ID":49165,"ELEMENT_SET_NO":999,"REV_AT_EPOCH":24721,"BSTAR":-0.00014180098,"MEAN_MOTION_DOT":-1.784e-5,"MEAN_MOTION_DDOT":0},{"OBJECT_NAME":"GEESAT-2 04","OBJECT_ID":"2024-023D","EPOCH":"2026-03-09T22:58:49.443744","MEAN_MOTION":14.96681304,"ECCENTRICITY":0.00064656,"INCLINATION":49.992,"RA_OF_ASC_NODE":72.838,"ARG_OF_PERICENTER":6.7244,"MEAN_ANOMALY":353.3785,"EPHEMERIS_TYPE":0,"CLASSIFICATION_TYPE":"U","NORAD_CAT_ID":58908,"ELEMENT_SET_NO":999,"REV_AT_EPOCH":11446,"BSTAR":0.0002767609,"MEAN_MOTION_DOT":2.943e-5,"MEAN_MOTION_DDOT":0}]
